{"fetched_at":"2026-04-01T16:59:04Z","count":11445,"tles":[{"name":"RASSVET-3 OBJECT R","line1":"1 68375U 26061R   26090.65551310  .00115755  35198-5  39091-3 0  9997","line2":"2 68375  82.2966  99.7084 0025462  44.5811 315.7502 15.89296702  1264","category":"Other"}]}