{
  "norad_id": 68375,
  "name": "RASSVET-3 16",
  "history": [
    {
      "epoch": "2026-03-31T15:43:56.331840Z",
      "apogee_km": 321.2682369643917,
      "perigee_km": 287.23883140810176,
      "latitude_deg": -1.045249434025158e-05,
      "longitude_deg": 34.693911089030344,
      "height_km": 295.25887554954784,
      "semi_major_axis_km": 6682.390534186246,
      "eccentricity": 0.0025462,
      "inclination_deg": 82.2966,
      "raan_deg": 99.7084,
      "arg_perigee_deg": 44.5811,
      "mean_anomaly_deg": 315.7502,
      "mean_motion_rev_day": 15.89296702
    }
  ]
}